#aV2016  1  4  0  0  0.00000000     288 DD+AD WGS84 FIT  NGA
## 1878  86400.00000000   300.00000000 57391 0.0000000000000
+   31     1  2  3  5  6  7  8  9 10 11 12 13 14 15 16 17 18
+         19 20 21 22 23 24 25 26 27 28 29 30 31 32  0  0  0
+          0  0  0  0  0  0  0  0  0  0  0  0  0  0  0  0  0
+          0  0  0  0  0  0  0  0  0  0  0  0  0  0  0  0  0
+          0  0  0  0  0  0  0  0  0  0  0  0  0  0  0  0  0
++         2  2  2  2  2  2  2  2  2  2  2  2  2  2  2  2  2
++         2  2  2  2  2  2  2  2  2  2  2  2  2  2  0  0  0
++         0  0  0  0  0  0  0  0  0  0  0  0  0  0  0  0  0
++         0  0  0  0  0  0  0  0  0  0  0  0  0  0  0  0  0
++         0  0  0  0  0  0  0  0  0  0  0  0  0  0  0  0  0
%c cc cc ccc ccc cccc cccc cccc cccc ccccc ccccc ccccc ccccc
%c cc cc ccc ccc cccc cccc cccc cccc ccccc ccccc ccccc ccccc
%f  0.0000000  0.000000000  0.00000000000  0.000000000000000
%f  0.0000000  0.000000000  0.00000000000  0.000000000000000
%i    0    0    0    0      0      0      0      0         0
%i    0    0    0    0      0      0      0      0         0
/*      NGA, ST. LOUIS,MO.                                  
/*   EPHEMERIS COMPUTED FROM 2 DAYS OF DATA                 
/*   EPOCHA v2.4 SMOOTHER                                   
/*   G1762 IERS2010 SATAF SATAPC                            
*  2016  1  4 10 50  0.00000000
P  1  22680.284912  13625.000164   3318.070583      8.293801                    
V  1   1975.905886   4559.536659 -31312.851384      0.009445                    
P  2  -8313.921120 -19767.169368  16342.845409    598.820656                    
V  2  17602.754870   9447.848864  20480.844800      0.004272                    
P  3  13130.423642  11198.005667  20185.108293     -6.989476                    
V  3  -3593.627650  25414.638035 -11774.271869     -0.051064                    
P  5  -2969.908505 -25306.271709  -7201.625217   -158.599617                    
V  5   4043.559997  -8798.303640  29729.106361      0.035805                    
P  6   5567.546358 -14449.355308  21582.442686    123.513957                    
V  6  22523.283668  15588.336954   4616.831183      0.062926                    
P  7  20890.668152   1600.926962 -16421.092748    475.022457                    
V  7  15802.378991  13799.644742  20901.253108     -0.013903                    
P  8  12927.387034  10062.564662 -20851.250670    -18.760887                    
V  8 -23837.952285  11830.237463  -9041.780743     -0.014648                    
P  9  24962.252539  -7414.160747   5237.856121     42.828671                    
V  9  -4858.160585   5411.641432  30703.956438      0.079388                    
P 10 -10987.564931  20455.889247 -12847.383319     48.707528                    
V 10   -805.284779 -16493.970423 -25605.726641      0.016755                    
P 11  23237.125062  11528.301693  -6401.596995   -625.407968                    
V 11  -8429.871063   2376.621270 -28745.798281     -0.019832                    
P 12 -10574.002736 -14857.062612  19282.383026    358.442608                    
V 12   4464.755397 -24176.317042 -15878.059465      0.028154                    
P 13  -3392.708517 -14674.401842 -22016.363211   -176.094811                    
V 13  26270.089164  -8419.362063   1483.237782     -0.026312                    
P 14 -19450.555820  14793.313003  10471.534719     11.294921                    
V 14 -13017.651033   2167.926234 -28050.823877     -0.023285                    
P 15 -16565.946822  -7713.441368 -19502.295842   -290.565911                    
V 15  21121.021024 -12514.861676 -12724.277709     -0.018831                    
P 16    488.072733  25384.029302  -7174.570913    -51.334689                    
V 16  -3537.047156   8599.071667  30898.367760      0.033369                    
P 17  19591.722708 -15013.121157   9848.214209   -198.118679                    
V 17  12043.772923  -2438.337692 -28812.250098     -0.006873                    
P 18 -15091.243372   9548.506941 -19066.170637    469.557344                    
V 18    -63.118574 -25600.112532 -12711.362540      0.038676                    
P 19  22528.409862 -12674.992477   6843.747413   -524.226750                    
V 19   9040.809356   -971.967527 -30139.090431     -0.002341                    
P 20 -13638.573930 -13553.913830 -18458.284777    383.272391                    
V 20   2380.924755 -23218.999649  15487.742773      0.027298                    
P 21 -19231.500039   2536.156421 -17546.803815   -503.351525                    
V 21 -18449.436854 -15036.454075  17043.823946     -0.021169                    
P 22  -6102.383239  25093.954903  -5674.323813    414.960129                    
V 22  -3484.173098  -7822.544437 -29833.865677     -0.037590                    
P 23  21844.755377   2291.367106  15404.178945   -153.210298                    
V 23 -16613.186012   9668.402624  21938.360483     -0.019468                    
P 24 -22120.926301 -14879.149045    340.444516    -10.239030                    
V 24   1278.491004  -2713.798061 -31419.538381     -0.005849                    
P 25 -14824.895420    -63.988597  21928.884936    -93.862812                    
V 25   2570.724093 -27927.734070   1824.483451     -0.062781                    
P 26  -4892.053160  25848.515412   3545.611302   -196.034205                    
V 26  -2392.506619  -4741.801146  31341.617371     -0.169441                    
P 27   1880.375913  15394.375288 -21567.130789     50.345929                    
V 27 -25059.604124  10903.222502   5737.562729      0.034116                    
P 28  11810.257502 -19766.475676 -12547.683537    492.980853                    
V 28  -1132.728122  17005.746790 -26584.600355      0.027304                    
P 29 -25011.761416   3917.002609   7984.724396    650.627197                    
V 29   8624.960758  -5715.652064  29921.935019      0.012307                    
P 30  13768.326630  -8131.560347 -21220.505122     79.963985                    
V 30  20380.515747  17645.600307   6384.384213      0.049045                    
P 31  -4457.027456  15032.908518  21503.936786    288.469612                    
V 31 -21863.165141 -15937.984953   6998.005220     -0.015796                    
P 32   6202.834956  22013.112539  13866.575287     69.641565                    
V 32  -5233.950054  16903.492011 -23826.948069      0.124324                    
EOF
